[{"OBJECT_NAME":"YUNHAI-3 01","OBJECT_ID":"2022-151A","EPOCH":"2026-03-09T23:02:06.865152","MEAN_MOTION":14.13435801,"ECCENTRICITY":0.00017147,"INCLINATION":98.8209,"RA_OF_ASC_NODE":77.7687,"ARG_OF_PERICENTER":54.4546,"MEAN_ANOMALY":305.6786,"EPHEMERIS_TYPE":0,"CLASSIFICATION_TYPE":"U","NORAD_CAT_ID":54235,"ELEMENT_SET_NO":999,"REV_AT_EPOCH":17092,"BSTAR":4.7399629e-5,"MEAN_MOTION_DOT":4.5e-7,"MEAN_MOTION_DDOT":0},{"OBJECT_NAME":"NOAA 14","OBJECT_ID":"1994-089A","EPOCH":"2026-03-09T21:27:41.808960","MEAN_MOTION":14.14655291,"ECCENTRICITY":0.00097901,"INCLINATION":98.5024,"RA_OF_ASC_NODE":43.0993,"ARG_OF_PERICENTER":15.8595,"MEAN_ANOMALY":344.2884,"EPHEMERIS_TYPE":0,"CLASSIFICATION_TYPE":"U","NORAD_CAT_ID":23455,"ELEMENT_SET_NO":999,"REV_AT_EPOCH":60916,"BSTAR":8.0295835e-5,"MEAN_MOTION_DOT":1.13e-6,"MEAN_MOTION_DDOT":0}]
